0 SL-16 DEB
1 22295U 92093K   13280.68708924 -.00000102  00000-0 -32522-4 0  8735
2 22295 071.0084 038.7880 0098094 177.5995 285.8917 14.05721454 65744
0 SL-16 DEB
1 22295U 92093K   13282.75249609  .00000010  00000-0  32804-4 0  8745
2 22295 071.0087 034.5175 0097947 174.5094 298.0798 14.05721267 66039
0 SL-16 DEB
1 22295U 92093K   13285.44844980  .00000179  00000-0  13256-3 0  8753
2 22295 071.0090 028.9434 0097749 170.4628 261.2257 14.05720263 66415
0 SL-16 DEB
1 22295U 92093K   13287.51401579  .00000315  00000-0  21240-3 0  8761
2 22295 071.0090 024.6725 0097575 167.3590 274.2300 14.05720230 66700
0 SL-16 DEB
1 22295U 92093K   13289.72721215  .00000292  00000-0  19835-3 0  8770
2 22295 071.0088 020.0966 0097408 164.0370 314.3273 14.05722652 67019
0 SL-16 DEB
1 22295U 92093K   13292.20438631  .00000065  00000-0  65564-4 0  8784
2 22295 071.0085 014.9748 0097289 160.2892 250.3524 14.05726009 67366
0 SL-16 DEB
1 22295U 92093K   13294.63558299 -.00000084  00000-0 -22440-4 0  8796
2 22295 071.0083 009.9480 0097224 156.6181 313.7241 14.05727770 67704
